{"type": "FeatureCollection", "features": [{"type": "Feature", "properties": {}, "geometry": {"type": "Polygon", "coordinates": [[[-180.0, -90.0], [-180.0, 90.0], [180.0, 90.0], [180.0, -90.0], [-180.0, -90.0]], [[87.79296877000007, 26.46821851900006], [87.79146845800005, 26.468919581000023], [87.78905083200004, 26.467766143000063], [87.78936395800008, 26.466435269000044], [87.79225383300007, 26.46579414400003], [87.79188183300005, 26.464209768000046], [87.79040739600003, 26.46400801900006], [87.78859145800004, 26.464941081000063], [87.78814277000004, 26.46330520600003], [87.79027758300003, 26.46243583100005], [87.79112702000003, 26.461165080000058], [87.78978320800007, 26.459802706000062], [87.78747958300005, 26.458608081000023], [87.78568489500003, 26.455925644000047], [87.78520695700007, 26.45403039400003], [87.78372758300009, 26.45299364400006], [87.78060739600005, 26.453563643000052], [87.78161995800008, 26.451186268000072], [87.78069689500006, 26.450284144000022], [87.77807902000006, 26.450790331000064], [87.77638114500007, 26.449587706000045], [87.77920602000006, 26.447437394000076], [87.77929339500008, 26.44449420600006], [87.77863308300005, 26.442304268000044], [87.77700289600006, 26.44043326800005], [87.77695564500004, 26.437869894000073], [87.77568758300004, 26.436432456000034], [87.77751895700004, 26.435239956000032], [87.77850364500006, 26.43647358100003], [87.78029258200007, 26.435960580000028], [87.77921870700004, 26.43143264300005], [87.77845608300004, 26.429674268000042], [87.77618133300007, 26.430997768000054], [87.77523164600007, 26.43001676800003], [87.77543264500008, 26.428406581000047], [87.77666370800006, 26.427601019000065], [87.77377945700005, 26.42624458100005], [87.77836245800006, 26.42412545600007], [87.77556833300008, 26.42096089300003], [87.77354452000003, 26.421558581000056], [87.77189145800008, 26.418920331000038], [87.76982214500003, 26.41803783100005], [87.77067889500006, 26.414952768000035], [87.76809002000005, 26.412806955000065], [87.76971327100006, 26.41136070600004], [87.76716645700003, 26.409970706000024], [87.75633789600005, 26.407839331000048], [87.74997827000004, 26.417527206000045], [87.74163070800006, 26.417257018000043], [87.73617639500009, 26.407450269000037], [87.72538064500003, 26.412237831000027], [87.72639020800005, 26.415263519000064], [87.72324770800003, 26.419671144000063], [87.72084627000004, 26.42205283100003], [87.71846145800004, 26.421577456000023], [87.71621083300005, 26.424870018000036], [87.71366739500007, 26.427028893000056], [87.70098870700008, 26.427881455000033], [87.69457977100006, 26.435310456000025], [87.68175270800003, 26.435083331000044], [87.68148720800008, 26.436508581000055], [87.67823327000008, 26.43576358000007], [87.67456908300005, 26.44129183000007], [87.67535064500004, 26.449462269000037], [87.67366158300007, 26.45100489300006], [87.66882720700005, 26.453620519000026], [87.66408014600006, 26.45533751800008], [87.66150077000003, 26.45797408100003], [87.65968833300008, 26.461451144000023], [87.65958939500007, 26.463117081000064], [87.66246333300006, 26.46953108100007], [87.66226089500003, 26.471073268000055], [87.66034670700003, 26.47334126900006], [87.65424783200007, 26.477973081000073], [87.65208570800007, 26.48190076800006], [87.65130708300006, 26.48458983100005], [87.65102789500008, 26.490673143000038], [87.65128570700006, 26.49347251900008], [87.65100208300004, 26.496782206000034], [87.65010364500006, 26.498144893000074], [87.64756102000007, 26.49995283100003], [87.64685820800008, 26.503560081000046], [87.64514545800006, 26.507122206000076], [87.64562633300005, 26.509785269000076], [87.64438939500008, 26.516256518000034], [87.64515358300008, 26.52305258100006], [87.64316445800006, 26.52761345600004], [87.64309395800007, 26.529125831000044], [87.64429445800005, 26.53396339300008], [87.64498127000007, 26.54024983100004], [87.64759858300005, 26.543979643000057], [87.64842439500006, 26.54726170600003], [87.64797389500006, 26.55092645600007], [87.64710514600006, 26.55318939400007], [87.64433358300005, 26.556456206000064], [87.64390370800004, 26.557902394000052], [87.64330339500003, 26.562750331000075], [87.64325352000003, 26.571233643000028], [87.64341358300004, 26.57528608100006], [87.64163302000009, 26.577686206000067], [87.63834895800005, 26.579989269000066], [87.63865302000005, 26.580739393000044], [87.64352339600003, 26.582145956000033], [87.64463595800004, 26.583921581000027], [87.64204820700007, 26.58766133100005], [87.64157558200003, 26.589227393000044], [87.64071352000008, 26.59241770600005], [87.64113420700005, 26.59380383100006], [87.64073195800006, 26.59617514300004], [87.64186639500008, 26.597937081000055], [87.64390777000006, 26.59756451800007], [87.64599927000006, 26.59795901800004], [87.64902527000004, 26.599457206000068], [87.65099995800006, 26.604155769000045], [87.64945108200004, 26.60662489400005], [87.65070533300008, 26.60888039400004], [87.65435295700007, 26.611240018000046], [87.65708889500007, 26.61364658100007], [87.65796783200005, 26.615533706000065], [87.65708820800006, 26.61736114400003], [87.65756889600004, 26.621405268000046], [87.65566695800004, 26.625925206000034], [87.65671120800005, 26.62938220600006], [87.65650039600007, 26.633136081000032], [87.65505514500006, 26.635327269000072], [87.65254583200004, 26.63775795600003], [87.65240689500007, 26.638830582000026], [87.65002720800004, 26.64300508100007], [87.64669752000003, 26.644760207000047], [87.64639489500007, 26.64720783100006], [87.64427939500007, 26.650523518000057], [87.64404739500009, 26.65427526900004], [87.64430808200007, 26.657647831000077], [87.64497283300005, 26.658953706000034], [87.64525595800006, 26.66217276800006], [87.64483170700004, 26.66412220600006], [87.64516114600008, 26.66697770600007], [87.64785470800007, 26.668892706000065], [87.64810227000004, 26.67302808100004], [87.64932820800004, 26.67525664300007], [87.65081833300007, 26.676664768000023], [87.65235252000008, 26.67973808100004], [87.65289252000008, 26.68247751800004], [87.65518208300006, 26.684601831000066], [87.65541970800007, 26.686058581000054], [87.65372483300007, 26.689318206000053], [87.65521270800008, 26.692813831000024], [87.65440389500003, 26.69471995600003], [87.65583045800008, 26.698023956000043], [87.65592214500003, 26.704608519000033], [87.65659395800003, 26.70706520600004], [87.65659627000008, 26.710644331000026], [87.65781314600008, 26.715880956000035], [87.66231439600006, 26.718906581000056], [87.67064789500006, 26.72237883100007], [87.67773983300003, 26.72702320600007], [87.68088708300007, 26.729878643000063], [87.68358189500003, 26.73334320600003], [87.68441545800005, 26.735399581000024], [87.68433095700004, 26.740071268000065], [87.68650995800004, 26.746424581000042], [87.68758158300005, 26.748019269000054], [87.68974008300006, 26.749663019000025], [87.69363777000007, 26.744920769000032], [87.69638802000009, 26.739924581000025], [87.69961808300008, 26.736160331000065], [87.70064320800003, 26.733645893000073], [87.70243320700007, 26.733621206000066], [87.70418177000005, 26.73115051900004], [87.70369602100004, 26.728393019000066], [87.70498020800005, 26.725419143000067], [87.70677927000008, 26.719775269000024], [87.70780145800006, 26.715193644000067], [87.70942583300007, 26.712012644000026], [87.71021308200005, 26.70949476800007], [87.70922295700007, 26.70623658100004], [87.70777727000007, 26.703964518000078], [87.70718639500006, 26.70105183100003], [87.70909833300004, 26.696664394000038], [87.71122139500005, 26.694232331000023], [87.71151558300005, 26.696896018000075], [87.71488820700006, 26.694798393000042], [87.71863095800006, 26.693951269000024], [87.72097652000008, 26.692784018000054], [87.72490920800004, 26.689715206000074], [87.73000483300007, 26.68723158100005], [87.73183539500008, 26.68679114400004], [87.73424952000005, 26.68538176800007], [87.73945039600005, 26.681360518000076], [87.74106164500006, 26.67946333100008], [87.74752902000006, 26.676161706000073], [87.75033033300008, 26.675449644000025], [87.76053158300004, 26.67161545600004], [87.76259970800004, 26.667675518000067], [87.76763589600006, 26.664924581000037], [87.77437889500004, 26.66584933100006], [87.77826227000008, 26.665489644000047], [87.78119308300006, 26.664496394000025], [87.78539433200007, 26.66434689400006], [87.79029039500006, 26.665786581000077], [87.79333014500008, 26.665943394000067], [87.79390202000008, 26.667359644000044], [87.79315195700008, 26.669503143000043], [87.79293258300004, 26.672564394000062], [87.79333245800007, 26.675168581000037], [87.79471377100003, 26.67675858100006], [87.79587852000003, 26.680071643000076], [87.79981458200007, 26.68287483100005], [87.80115308200004, 26.684695143000056], [87.80294127000008, 26.685425269000064], [87.80562208300006, 26.687594519000072], [87.81002952100005, 26.68913333100005], [87.81119520800007, 26.69125920600004], [87.81432233300006, 26.692031143000065], [87.81706395800006, 26.69368301800006], [87.81864077100005, 26.693112081000038], [87.82061945800007, 26.69340076900005], [87.82407245800005, 26.691780893000043], [87.82943877000008, 26.691158331000054], [87.83238264500005, 26.688810019000073], [87.83614808300007, 26.68736158100006], [87.83825839500008, 26.684266644000047], [87.84111077000006, 26.681916456000067], [87.84213808300007, 26.678644956000028], [87.84373520800006, 26.676945268000054], [87.84630745800007, 26.67599345600007], [87.84747889500005, 26.674752081000065], [87.84926333300007, 26.674448081000037], [87.85357202000006, 26.675701769000057], [87.85618564600009, 26.67509251900003], [87.85873258300006, 26.67572939400003], [87.86383489500008, 26.673613269000043], [87.86606577000003, 26.673310832000027], [87.86801839600008, 26.673754768000038], [87.86819320800004, 26.671458706000067], [87.87063470700008, 26.671940206000045], [87.86986395700006, 26.675056768000047], [87.86792589500004, 26.677293769000073], [87.86729964500006, 26.68209289400005], [87.86780633300003, 26.683813893000035], [87.86597789600006, 26.684289893000027], [87.86454883300007, 26.687004331000026], [87.86537095800009, 26.690084144000025], [87.86819489500004, 26.690831893000052], [87.86965883300007, 26.691806831000065], [87.87203908300006, 26.69144695600005], [87.87399908200007, 26.688695331000076], [87.87792952000007, 26.686800394000045], [87.88172883300007, 26.68428551900007], [87.88394083200006, 26.686645706000036], [87.88650852000006, 26.68820939400007], [87.88829233300004, 26.688211769000077], [87.88967314500007, 26.686716019000073], [87.89425508300008, 26.686985081000046], [87.89661364500006, 26.689811331000044], [87.89848777000003, 26.690848768000023], [87.90274020800007, 26.691038456000058], [87.90479020800007, 26.690626018000046], [87.90615164500008, 26.691944206000073], [87.90905970800009, 26.69242433100004], [87.91293358200005, 26.69366089300007], [87.91805808300006, 26.69277264300007], [87.91869733300007, 26.69400739400004], [87.92173095800007, 26.69602089400007], [87.92684533300007, 26.697145269000032], [87.92873314600007, 26.696327331000077], [87.93299652100006, 26.69359370600006], [87.93465752000003, 26.689787144000036], [87.93644783300005, 26.688434956000037], [87.93859852100007, 26.69229308100006], [87.93631427000008, 26.695151456000076], [87.93901545800009, 26.696643206000033], [87.93716052000008, 26.699316018000047], [87.93848752000008, 26.700214456000026], [87.93580758300004, 26.70254970600007], [87.93687589600006, 26.70359883200007], [87.93556102000008, 26.70581889300007], [87.93606545800003, 26.707510269000068], [87.93555258300006, 26.708937581000043], [87.92913839500005, 26.711901956000077], [87.92991502100006, 26.715480456000023], [87.93115120800007, 26.71545870700004], [87.93093064500005, 26.718775144000062], [87.93496602000005, 26.72386883200005], [87.93808514500006, 26.72614314300006], [87.94191445800004, 26.72651945700005], [87.94534014500005, 26.72822745600007], [87.94826314500006, 26.726511018000053], [87.95123483300006, 26.727258394000046], [87.95288008300008, 26.728366581000046], [87.95217333200009, 26.73146739400005], [87.95302308300006, 26.734512581000047], [87.95231345800005, 26.737802956000053], [87.95118283300008, 26.739351769000052], [87.95238514600004, 26.740151581000077], [87.95362845800008, 26.742532894000078], [87.95604445800006, 26.744856706000064], [87.96025520800004, 26.749564831000043], [87.95952858300006, 26.75223476900004], [87.95794820700007, 26.753373768000074], [87.95772258300008, 26.756374269000048], [87.95664064600004, 26.75872839400006], [87.95685408300005, 26.76109864400007], [87.95138695800006, 26.763807206000024], [87.95144445800008, 26.766483143000073], [87.95378239600007, 26.765271393000035], [87.95583852000004, 26.766507707000073], [87.95623977000008, 26.76766714300004], [87.96006927100007, 26.76841526800007], [87.96011902000004, 26.774782956000024], [87.96122545800006, 26.781145769000034], [87.96368002000008, 26.78628308100008], [87.96529302100004, 26.787910331000035], [87.96731414500005, 26.789559644000065], [87.96916095800003, 26.78851576900007], [87.96856333300008, 26.785356144000048], [87.96669739500004, 26.783317706000048], [87.96689083300004, 26.78211364400005], [87.96560564600009, 26.77873076900005], [87.96585727100006, 26.77689220600007], [87.97126964500006, 26.77452189400003], [87.97342014600008, 26.77285758100004], [87.97532958200009, 26.77307014400003], [87.97663939500006, 26.775268019000066], [87.97679895800007, 26.777020269000047], [87.97785245800009, 26.778199956000037], [87.98073895800007, 26.77631608100006], [87.98033114500004, 26.773547894000046], [87.97853889500004, 26.77131945600007], [87.97863420800007, 26.76887045600006], [87.98117889600007, 26.766873831000055], [87.98130495800007, 26.763919143000066], [87.98291339600007, 26.762917393000066], [87.98225402000008, 26.760638269000026], [87.98118277000003, 26.75979270600004], [87.98102202000007, 26.758049519000053], [87.98391270800005, 26.752119519000075], [87.98886295800008, 26.753235956000026], [87.99041958200007, 26.752076456000054], [87.99376533200007, 26.755340894000028], [87.99739920800005, 26.752492393000068], [87.99947933300007, 26.753292393000038], [88.00088702000005, 26.75774814400006], [88.00097695800008, 26.76204851800003], [88.00160595800008, 26.765266456000063], [88.00069483300007, 26.767723518000025], [88.00105964500005, 26.769618706000074], [88.00333320800007, 26.773937456000056], [88.00578533300006, 26.774818206000077], [88.00674958300004, 26.773622144000058], [88.00682458300008, 26.76985764400007], [88.01087839500008, 26.766796019000026], [88.01277670800005, 26.767958144000033], [88.01844952000005, 26.769018644000028], [88.02014745800005, 26.768974831000037], [88.02281002100005, 26.77020126800005], [88.02335664500004, 26.77291870700003], [88.02702664500003, 26.773196832000053], [88.02700620800005, 26.775261644000068], [88.02836127100005, 26.777835581000033], [88.02998277000006, 26.777045331000068], [88.02946739500004, 26.773291894000067], [88.02962227000006, 26.77046333100003], [88.03068158300005, 26.768539831000055], [88.02930277000007, 26.76625495600007], [88.03151433300008, 26.763670956000055], [88.03428570800008, 26.76468645600005], [88.03777414600006, 26.763968206000072], [88.03866314600003, 26.762005269000042], [88.03842833300007, 26.75995583100007], [88.04119320800004, 26.759443581000028], [88.04244389500008, 26.75765395600007], [88.04383327000005, 26.757034519000058], [88.04453227000005, 26.755185769000036], [88.04730395800004, 26.752416831000062], [88.04706508300006, 26.750694644000077], [88.04799233300008, 26.749494081000023], [88.04710358300008, 26.747968456000024], [88.04862452100008, 26.745664581000028], [88.04957095800006, 26.748620394000056], [88.05311852100004, 26.75193151800005], [88.05835083300008, 26.754458206000038], [88.05909502000009, 26.75677689400004], [88.06056527000004, 26.75891189400005], [88.06069214600006, 26.76120583200003], [88.06183102000006, 26.764597894000076], [88.06327077100008, 26.765394956000023], [88.06450483300006, 26.76995289300004], [88.06342639500008, 26.77151120600007], [88.06404583300008, 26.773505831000023], [88.06620333300003, 26.777251206000074], [88.06639002000009, 26.780005019000043], [88.06791120800006, 26.78343926900004], [88.06762245800007, 26.78475701900004], [88.06915833300008, 26.786661206000076], [88.07019770800008, 26.78930920600004], [88.07015620800007, 26.79145101900008], [88.07263258300009, 26.79074408100007], [88.07539702100007, 26.78885245600003], [88.07736245800004, 26.788160581000056], [88.07839720800007, 26.786771706000025], [88.07968827100007, 26.782979956000077], [88.08354139600004, 26.787540269000033], [88.08535158300003, 26.78923914300003], [88.08742564500005, 26.79006039400008], [88.08853902100003, 26.791389956000046], [88.08948295800008, 26.79479001900006], [88.09237814600004, 26.79627276900004], [88.09205295800007, 26.799199644000055], [88.09534789500003, 26.801108019000026], [88.09761764500007, 26.799174769000047], [88.09935689600007, 26.79497545600003], [88.09601152100004, 26.791727206000076], [88.09500877100004, 26.789882331000058], [88.09685258300004, 26.78793201800005], [88.09542427000008, 26.786216831000047], [88.09539533300006, 26.784707456000035], [88.09777658300004, 26.784346019000054], [88.09705764500006, 26.78168214300007], [88.09795495800006, 26.77871014400006], [88.10038877000005, 26.77727870600006], [88.10088677100003, 26.776252644000067], [88.09773927100008, 26.77438833100007], [88.09917477300007, 26.77296715400007], [88.09980183300007, 26.769399019000048], [88.09877708300007, 26.76766945600008], [88.09966795800005, 26.76548051900005], [88.09881077100005, 26.763982019000025], [88.09928070800004, 26.76148495700005], [88.10177258300007, 26.75843283100005], [88.10149352100007, 26.756537269000034], [88.10347727100003, 26.75332889300006], [88.10507802000006, 26.75250408100004], [88.10490089500007, 26.75095520600007], [88.10719814600003, 26.748150519000035], [88.11001508300006, 26.74646089400005], [88.11282620900005, 26.746752456000024], [88.11415052100006, 26.745573269000033], [88.11591439500006, 26.74679820700004], [88.11691014500008, 26.748514331000024], [88.11851102100007, 26.747526894000032], [88.12074620800007, 26.748046332000058], [88.12171889600006, 26.75348358100007], [88.12799520800007, 26.758294268000043], [88.12931320800004, 26.762257456000043], [88.12813289600007, 26.765238706000048], [88.13087639500003, 26.76830820600003], [88.13309945800006, 26.769138831000078], [88.13402533300007, 26.770920894000028], [88.13415339500006, 26.775396769000054], [88.13577102100004, 26.77417883100003], [88.13574014500006, 26.77157733100006], [88.13757314500003, 26.76965139300006], [88.13867389600006, 26.765330394000046], [88.13998745800006, 26.765716956000063], [88.14404827100003, 26.76812351800004], [88.14563314500003, 26.769487206000065], [88.14769108300004, 26.769075644000054], [88.14895420800008, 26.77143245600007], [88.15039970800007, 26.775852456000052], [88.15128452100004, 26.777271394000024], [88.15120308300004, 26.78134501900007], [88.15256695900007, 26.784887894000065], [88.15226070800009, 26.787049832000037], [88.15430789600003, 26.789465644000074], [88.15535764500004, 26.792128769000044], [88.15728008400004, 26.795177331000048], [88.15689202000004, 26.797511456000052], [88.15484208300006, 26.802672956000038], [88.15335283300004, 26.804045769000027], [88.15494014600006, 26.805526581000038], [88.15742864600008, 26.80331301900003], [88.15868814500004, 26.800312831000042], [88.16153489600003, 26.798962706000054], [88.16194264500007, 26.797088769000027], [88.16362539600004, 26.794489018000036], [88.16388627000003, 26.792271019000054], [88.16270483300008, 26.790333394000072], [88.16392558300004, 26.787432831000046], [88.16835370800004, 26.783361769000066], [88.16909420900004, 26.784224394000034], [88.17124652000007, 26.782399269000052], [88.17520452100007, 26.78050483100003], [88.17821627000006, 26.782061644000066], [88.18342314500006, 26.781566894000036], [88.18745970600008, 26.782835087000024], [88.19056502000007, 26.771350706000078], [88.19056995800008, 26.767665831000045], [88.18985558300005, 26.760146519000045], [88.18847314500005, 26.756473331000052], [88.18971270800006, 26.75059833100005], [88.18884727000005, 26.744422831000065], [88.18856195800004, 26.740056706000075], [88.18898477100004, 26.738182519000077], [88.18712177100008, 26.733998831000065], [88.18740320900008, 26.730672644000038], [88.18491564500005, 26.727189081000063], [88.18529677100008, 26.72371326800004], [88.18464345800004, 26.719169644000033], [88.18314702100008, 26.71740176800006], [88.18108952000006, 26.712700581000036], [88.17910345900003, 26.709982206000063], [88.17564464600008, 26.707765706000032], [88.17214245800005, 26.701293706000058], [88.16974727000007, 26.699248768000075], [88.17066114500005, 26.697221643000034], [88.17013883300007, 26.69552458100003], [88.17030614500004, 26.68718539400004], [88.16967314600004, 26.685838956000055], [88.17044689500005, 26.683688894000056], [88.16667839600007, 26.678218581000067], [88.16738014500004, 26.673993143000075], [88.16754139600005, 26.66997520600006], [88.16692370800007, 26.66536564300003], [88.16552914500005, 26.65034876800007], [88.16566689600006, 26.645681144000037], [88.16330733300003, 26.64224801900008], [88.16160389600003, 26.642036269000073], [88.16058720800004, 26.63977226800006], [88.16307839600006, 26.636256581000055], [88.16074777000006, 26.63565508100004], [88.15997477100007, 26.632527081000035], [88.15688289600007, 26.62994820600005], [88.14949845800004, 26.62926570600007], [88.14694152000004, 26.627925644000072], [88.14665758300004, 26.62645895600008], [88.14460964600005, 26.625475769000047], [88.14342739600005, 26.62242095600004], [88.14293089500006, 26.618823519000046], [88.14313102100004, 26.613133144000074], [88.14183714600006, 26.610765144000027], [88.14219120800004, 26.609758144000068], [88.14135864500008, 26.605930956000066], [88.13823783300006, 26.60557458100004], [88.13352314600007, 26.602177769000036], [88.13248777100006, 26.600987769000028], [88.13428170800006, 26.597645143000022], [88.13450577100008, 26.592877456000053], [88.13207533400004, 26.587133581000046], [88.13268739600005, 26.58454495600006], [88.12990539600008, 26.581563643000038], [88.13248164500004, 26.57925726800005], [88.13311170800006, 26.576144956000064], [88.13279920800005, 26.573394456000074], [88.13102789600003, 26.57230283100006], [88.12980402000005, 26.57538820600007], [88.12784402000005, 26.57732408100003], [88.12601477100009, 26.576909831000023], [88.12579658300007, 26.575708769000073], [88.12779727100008, 26.574151706000066], [88.12555152100003, 26.571949018000055], [88.12335933300005, 26.575418956000078], [88.12020514600005, 26.574250018000043], [88.12074552000007, 26.57149276900003], [88.12181533300009, 26.569828018000067], [88.12185077100008, 26.56805408100007], [88.11726077100008, 26.570066956000062], [88.11688033300004, 26.57178489300003], [88.11475208300004, 26.571061393000036], [88.11394302100007, 26.567719018000048], [88.11577114500005, 26.564667331000066], [88.11532108300008, 26.56276408100007], [88.11333677000005, 26.56146626900005], [88.11605014600008, 26.55946601900007], [88.11613983300003, 26.558233206000068], [88.11435858300007, 26.556782643000076], [88.11143120800006, 26.556952206000062], [88.11030539600006, 26.560165331000064], [88.10799977100004, 26.56061201800003], [88.10799695800006, 26.550403268000025], [88.11011402100007, 26.55020176800008], [88.11303964500007, 26.54733570600007], [88.11410539500008, 26.54486995600007], [88.11160283300006, 26.543262519000052], [88.10960758300007, 26.541055331000052], [88.10639639600004, 26.53939008100008], [88.10426014500007, 26.539530769000066], [88.10186920800004, 26.538490956000032], [88.10065102000004, 26.536047456000063], [88.10163858300007, 26.534503081000025], [88.10352145800005, 26.53470289300003], [88.10525795800004, 26.53624420600005], [88.10639139500006, 26.534682893000024], [88.10543870800007, 26.531743206000044], [88.10560802000003, 26.529841831000056], [88.10752945800004, 26.527658393000024], [88.10569070800005, 26.518569581000065], [88.10515777000006, 26.517928331000064], [88.09925995800006, 26.516969706000054], [88.09731120800006, 26.51495833100006], [88.09890039500004, 26.512660143000062], [88.09920439600006, 26.51106920600006], [88.09828102000006, 26.50998183100006], [88.09469670800007, 26.508662206000054], [88.09305145800005, 26.507492331000037], [88.09355227000003, 26.505550081000024], [88.09507033300008, 26.504356018000067], [88.09697014500006, 26.504271456000026], [88.10064489500007, 26.50581151800003], [88.10129345800004, 26.50544089400006], [88.10195170800006, 26.50069020600006], [88.10304658300004, 26.498271706000025], [88.10224502000005, 26.496402706000026], [88.10311320800008, 26.493615831000056], [88.10571395800008, 26.49224626800003], [88.10569683300008, 26.49052464400006], [88.10833395800006, 26.489159268000037], [88.10700758300004, 26.486567706000073], [88.10365195800006, 26.48346601800006], [88.10283027100007, 26.480069456000024], [88.10425920800003, 26.478320831000076], [88.10768120800003, 26.47750676800007], [88.10928870800007, 26.476539769000055], [88.10983839600004, 26.47489495600007], [88.10924614500004, 26.47308295600004], [88.10746420800007, 26.471864706000076], [88.10478670800006, 26.471334831000036], [88.10165339600007, 26.47242414400006], [88.10200008300006, 26.470386018000056], [88.10408114600006, 26.469650081000054], [88.10618539600006, 26.46786464300004], [88.10576133300003, 26.46553908100003], [88.10362789500005, 26.464585268000064], [88.09673033300004, 26.464530081000078], [88.09448002000005, 26.462744331000067], [88.09523883300005, 26.460725581000077], [88.09821845800008, 26.455679518000068], [88.09948220800004, 26.45193964400005], [88.09961314600008, 26.45034320600007], [88.09899183300007, 26.44616645600007], [88.09898602000004, 26.443108831000075], [88.09840039500006, 26.43924776800003], [88.09737177000005, 26.437443581000025], [88.09115408300005, 26.43394601800003], [88.08745039600007, 26.43032983100005], [88.08627252000008, 26.425875206000057], [88.08506145800004, 26.42495920600004], [88.08118833300006, 26.419789206000075], [88.07909320800007, 26.417988456000046], [88.07263502000006, 26.413451519000034], [88.07201620800004, 26.410903956000027], [88.07391664600004, 26.407874831000072], [88.07175833300005, 26.407473581000033], [88.07001520800009, 26.40902339300004], [88.06741339600006, 26.40767758100003], [88.06680489500008, 26.41005158100006], [88.06339233300008, 26.409594081000023], [88.06020620800007, 26.406763081000065], [88.05806970800006, 26.40236264300006], [88.05827695800008, 26.400905644000034], [88.05552952100004, 26.40073626900005], [88.05401958300007, 26.398660019000033], [88.05247764600006, 26.400506018000044], [88.05021583300004, 26.40082958000005], [88.04785452000004, 26.399576394000064], [88.04874520800007, 26.398516018000066], [88.04746608300007, 26.395618831000036], [88.04543914600004, 26.39592926800003], [88.04488233300003, 26.39496970600004], [88.04048202100006, 26.393638768000073], [88.03907064600008, 26.390000018000023], [88.03724564500004, 26.390678956000045], [88.03700770800003, 26.388236706000043], [88.03485064500006, 26.38813501800007], [88.03266745800005, 26.382983081000077], [88.02976008300004, 26.381683831000032], [88.03088502000008, 26.378572831000042], [88.03397114500007, 26.37800895600003], [88.03233445800004, 26.374484581000047], [88.03053427000003, 26.372642581000036], [88.02976602000007, 26.370908206000024], [88.03032533300006, 26.36886420600007], [88.03344533300003, 26.36636164400005], [88.03243533300008, 26.364550019000035], [88.02690177100004, 26.363750330000073], [88.01022252100006, 26.360757018000072], [88.00943395800005, 26.36081901800003], [88.00668245800006, 26.364333956000053], [88.00445977100009, 26.364920519000066], [88.00237427000008, 26.36616501800006], [88.00048883300008, 26.364752019000036], [87.99814370800004, 26.36581770600003], [87.99671120800008, 26.36857851800005], [87.99537470800004, 26.36983576800003], [87.99447902100007, 26.372240831000056], [87.99418920800008, 26.39223701900005], [87.96833564500008, 26.396846393000033], [87.95706727000004, 26.40475970600005], [87.93583827100008, 26.41713358100003], [87.93401270800007, 26.418030206000026], [87.93140364500005, 26.41725964400007], [87.92975939600007, 26.417570519000037], [87.92886452000005, 26.420374581000033], [87.92943433300007, 26.42414633100003], [87.92857914600006, 26.42737664300006], [87.92661039500007, 26.428885643000058], [87.92395758300006, 26.42878995600006], [87.91894308300004, 26.430372643000055], [87.91854864600003, 26.432315893000066], [87.92062752000004, 26.435098581000034], [87.92581120700004, 26.437495581000064], [87.92791264600004, 26.439691206000077], [87.92836814600008, 26.44124539300003], [87.92763777100004, 26.44457645600005], [87.92661714600007, 26.44634558100006], [87.92538239600003, 26.44657245600007], [87.90124814500007, 26.44845083100006], [87.91218039500006, 26.457466831000033], [87.90885052000004, 26.46430101900006], [87.90259064500003, 26.477142893000064], [87.89065008300008, 26.486393519000046], [87.88811883300008, 26.47616845600004], [87.87192095800003, 26.47023614300008], [87.86604070800007, 26.467645081000057], [87.86574558200005, 26.464814769000043], [87.86428202100007, 26.46357564300007], [87.86053358300006, 26.46300701900003], [87.86102839500006, 26.45882914300006], [87.86072702000007, 26.455980768000074], [87.86223802100005, 26.453832268000042], [87.86505214500005, 26.452806519000035], [87.86374295800005, 26.45123251800004], [87.86392814600003, 26.448588769000025], [87.85351208300006, 26.44496389300008], [87.85120295800004, 26.436158455000054], [87.83073708300003, 26.439812893000067], [87.83211370800007, 26.44761989400007], [87.83221602100008, 26.449907581000048], [87.82770083300005, 26.45186108100006], [87.82552433300003, 26.453396956000063], [87.82415214500008, 26.455059018000043], [87.81971227000008, 26.458751706000044], [87.81400383300007, 26.461526269000046], [87.80748733200005, 26.464341268000055], [87.79488489500005, 26.46854626800007], [87.79296877000007, 26.46821851900006]]]}}]}